HONGHU 2
1 58555U 23193C   25358.42774515  .00010783  00000+0  51461-3 0  9992
2 58555  97.2706 349.4938 0038292 165.4505 194.7841 15.18574099 75433